STARLINK-36752          
1 67724U 26026D   26059.82140998  .00185195  00000+0  94448-3 0  9995
2 67724  97.2859 114.0419 0001183  80.5660 279.5742 15.80879192  2734
STARLINK-36754          
1 67725U 26026E   26059.82035044  .00204589  00000+0  10411-2 0  9997
2 67725  97.2861 114.0425 0001125  99.7607 260.3789 15.80877623  2730
STARLINK-36755          
1 67726U 26026F   26059.75579342 -.00651187  00000+0 -37796-2 0  9991
2 67726  97.2860 113.9762 0002078 167.7240 192.4078 15.80104061  2723
STARLINK-36741          
1 67727U 26026G   26059.81815030  .00108420  00000+0  56117-3 0  9990
2 67727  97.2857 114.0443 0000859  99.7778 260.3587 15.80761203  2731
STARLINK-36757          
1 67728U 26026H   26059.81692119  .00120526  00000+0  62028-3 0  9991
2 67728  97.2862 114.0449 0001248  72.6558 287.4847 15.80852480  2730
STARLINK-36751          
1 67729U 26026J   26059.81444068  .00280881  00000+0  14137-2 0  9998
2 67729  97.2859 114.0484 0001229 100.3668 259.7739 15.80919985  2732
STARLINK-36747          
1 67730U 26026K   26059.81594587  .00216619  00000+0  11001-2 0  9997
2 67730  97.2862 114.0469 0001096  78.8568 281.2823 15.80888945  2736
STARLINK-36315          
1 67731U 26026L   26059.81347929  .00161901  00000+0  82844-3 0  9991
2 67731  97.2858 114.0503 0000919 110.7264 249.4103 15.80867520  2736
STARLINK-36260          
1 67732U 26026M   26059.81229074  .00237440  00000+0  12020-2 0  9992
2 67732  97.2860 114.0516 0001276 120.3614 239.7781 15.80904651  2738
STARLINK-36746          
1 67733U 26026N   26059.83335647 -.02001160  00000+0 -22336-1 0  9991
2 67733  97.2842 114.0365 0001584  69.3763 320.3438 15.65960728  3883
STARLINK-36749          
1 67734U 26026P   26059.74697732 -.00440859  00000+0 -24613-2 0  9999
2 67734  97.2858 113.9858 0001501  58.0863 302.0551 15.80435503  2721
STARLINK-36691          
1 67735U 26026Q   26059.80681267  .00163332  00000+0  83535-3 0  9998
2 67735  97.2860 114.0562 0000888  97.6397 262.4972 15.80874553  2736
