CCSDS_OMM_VERS = 2.0
CREATION_DATE  = 
ORIGINATOR     = 

OBJECT_NAME    = STARLINK-36752
OBJECT_ID      = 2026-026D
CENTER_NAME    = EARTH
REF_FRAME      = TEME
TIME_SYSTEM    = UTC
MEAN_ELEMENT_THEORY = SGP/SGP4

EPOCH          = 2026-02-28T19:42:49.822272
MEAN_MOTION    = 15.80879192
ECCENTRICITY   = .0001183
INCLINATION    = 97.2859
RA_OF_ASC_NODE = 114.0419
ARG_OF_PERICENTER = 80.5660
MEAN_ANOMALY   = 279.5742

EPHEMERIS_TYPE = 0
CLASSIFICATION_TYPE = U
NORAD_CAT_ID   = 67724
ELEMENT_SET_NO = 999
REV_AT_EPOCH   = 273
BSTAR          = .94448E-3
MEAN_MOTION_DOT = .185195E-2
MEAN_MOTION_DDOT = 0

CCSDS_OMM_VERS = 2.0
CREATION_DATE  = 
ORIGINATOR     = 

OBJECT_NAME    = STARLINK-36754
OBJECT_ID      = 2026-026E
CENTER_NAME    = EARTH
REF_FRAME      = TEME
TIME_SYSTEM    = UTC
MEAN_ELEMENT_THEORY = SGP/SGP4

EPOCH          = 2026-02-28T19:41:18.278016
MEAN_MOTION    = 15.80877623
ECCENTRICITY   = .0001125
INCLINATION    = 97.2861
RA_OF_ASC_NODE = 114.0425
ARG_OF_PERICENTER = 99.7607
MEAN_ANOMALY   = 260.3789

EPHEMERIS_TYPE = 0
CLASSIFICATION_TYPE = U
NORAD_CAT_ID   = 67725
ELEMENT_SET_NO = 999
REV_AT_EPOCH   = 273
BSTAR          = .10411E-2
MEAN_MOTION_DOT = .204589E-2
MEAN_MOTION_DDOT = 0

CCSDS_OMM_VERS = 2.0
CREATION_DATE  = 
ORIGINATOR     = 

OBJECT_NAME    = STARLINK-36755
OBJECT_ID      = 2026-026F
CENTER_NAME    = EARTH
REF_FRAME      = TEME
TIME_SYSTEM    = UTC
MEAN_ELEMENT_THEORY = SGP/SGP4

EPOCH          = 2026-02-28T18:08:20.551488
MEAN_MOTION    = 15.80104061
ECCENTRICITY   = .0002078
INCLINATION    = 97.2860
RA_OF_ASC_NODE = 113.9762
ARG_OF_PERICENTER = 167.7240
MEAN_ANOMALY   = 192.4078

EPHEMERIS_TYPE = 0
CLASSIFICATION_TYPE = U
NORAD_CAT_ID   = 67726
ELEMENT_SET_NO = 999
REV_AT_EPOCH   = 272
BSTAR          = -.37796E-2
MEAN_MOTION_DOT = -.651187E-2
MEAN_MOTION_DDOT = 0

CCSDS_OMM_VERS = 2.0
CREATION_DATE  = 
ORIGINATOR     = 

OBJECT_NAME    = STARLINK-36741
OBJECT_ID      = 2026-026G
CENTER_NAME    = EARTH
REF_FRAME      = TEME
TIME_SYSTEM    = UTC
MEAN_ELEMENT_THEORY = SGP/SGP4

EPOCH          = 2026-02-28T19:38:08.185920
MEAN_MOTION    = 15.80761203
ECCENTRICITY   = .0000859
INCLINATION    = 97.2857
RA_OF_ASC_NODE = 114.0443
ARG_OF_PERICENTER = 99.7778
MEAN_ANOMALY   = 260.3587

EPHEMERIS_TYPE = 0
CLASSIFICATION_TYPE = U
NORAD_CAT_ID   = 67727
ELEMENT_SET_NO = 999
REV_AT_EPOCH   = 273
BSTAR          = .56117E-3
MEAN_MOTION_DOT = .10842E-2
MEAN_MOTION_DDOT = 0

CCSDS_OMM_VERS = 2.0
CREATION_DATE  = 
ORIGINATOR     = 

OBJECT_NAME    = STARLINK-36757
OBJECT_ID      = 2026-026H
CENTER_NAME    = EARTH
REF_FRAME      = TEME
TIME_SYSTEM    = UTC
MEAN_ELEMENT_THEORY = SGP/SGP4

EPOCH          = 2026-02-28T19:36:21.990816
MEAN_MOTION    = 15.80852480
ECCENTRICITY   = .0001248
INCLINATION    = 97.2862
RA_OF_ASC_NODE = 114.0449
ARG_OF_PERICENTER = 72.6558
MEAN_ANOMALY   = 287.4847

EPHEMERIS_TYPE = 0
CLASSIFICATION_TYPE = U
NORAD_CAT_ID   = 67728
ELEMENT_SET_NO = 999
REV_AT_EPOCH   = 273
BSTAR          = .62028E-3
MEAN_MOTION_DOT = .120526E-2
MEAN_MOTION_DDOT = 0

CCSDS_OMM_VERS = 2.0
CREATION_DATE  = 
ORIGINATOR     = 

OBJECT_NAME    = STARLINK-36751
OBJECT_ID      = 2026-026J
CENTER_NAME    = EARTH
REF_FRAME      = TEME
TIME_SYSTEM    = UTC
MEAN_ELEMENT_THEORY = SGP/SGP4

EPOCH          = 2026-02-28T19:32:47.674752
MEAN_MOTION    = 15.80919985
ECCENTRICITY   = .0001229
INCLINATION    = 97.2859
RA_OF_ASC_NODE = 114.0484
ARG_OF_PERICENTER = 100.3668
MEAN_ANOMALY   = 259.7739

EPHEMERIS_TYPE = 0
CLASSIFICATION_TYPE = U
NORAD_CAT_ID   = 67729
ELEMENT_SET_NO = 999
REV_AT_EPOCH   = 273
BSTAR          = .14137E-2
MEAN_MOTION_DOT = .280881E-2
MEAN_MOTION_DDOT = 0

CCSDS_OMM_VERS = 2.0
CREATION_DATE  = 
ORIGINATOR     = 

OBJECT_NAME    = STARLINK-36747
OBJECT_ID      = 2026-026K
CENTER_NAME    = EARTH
REF_FRAME      = TEME
TIME_SYSTEM    = UTC
MEAN_ELEMENT_THEORY = SGP/SGP4

EPOCH          = 2026-02-28T19:34:57.723168
MEAN_MOTION    = 15.80888945
ECCENTRICITY   = .0001096
INCLINATION    = 97.2862
RA_OF_ASC_NODE = 114.0469
ARG_OF_PERICENTER = 78.8568
MEAN_ANOMALY   = 281.2823

EPHEMERIS_TYPE = 0
CLASSIFICATION_TYPE = U
NORAD_CAT_ID   = 67730
ELEMENT_SET_NO = 999
REV_AT_EPOCH   = 273
BSTAR          = .11001E-2
MEAN_MOTION_DOT = .216619E-2
MEAN_MOTION_DDOT = 0

CCSDS_OMM_VERS = 2.0
CREATION_DATE  = 
ORIGINATOR     = 

OBJECT_NAME    = STARLINK-36315
OBJECT_ID      = 2026-026L
CENTER_NAME    = EARTH
REF_FRAME      = TEME
TIME_SYSTEM    = UTC
MEAN_ELEMENT_THEORY = SGP/SGP4

EPOCH          = 2026-02-28T19:31:24.610656
MEAN_MOTION    = 15.80867520
ECCENTRICITY   = .0000919
INCLINATION    = 97.2858
RA_OF_ASC_NODE = 114.0503
ARG_OF_PERICENTER = 110.7264
MEAN_ANOMALY   = 249.4103

EPHEMERIS_TYPE = 0
CLASSIFICATION_TYPE = U
NORAD_CAT_ID   = 67731
ELEMENT_SET_NO = 999
REV_AT_EPOCH   = 273
BSTAR          = .82844E-3
MEAN_MOTION_DOT = .161901E-2
MEAN_MOTION_DDOT = 0

CCSDS_OMM_VERS = 2.0
CREATION_DATE  = 
ORIGINATOR     = 

OBJECT_NAME    = STARLINK-36260
OBJECT_ID      = 2026-026M
CENTER_NAME    = EARTH
REF_FRAME      = TEME
TIME_SYSTEM    = UTC
MEAN_ELEMENT_THEORY = SGP/SGP4

EPOCH          = 2026-02-28T19:29:41.919936
MEAN_MOTION    = 15.80904651
ECCENTRICITY   = .0001276
INCLINATION    = 97.2860
RA_OF_ASC_NODE = 114.0516
ARG_OF_PERICENTER = 120.3614
MEAN_ANOMALY   = 239.7781

EPHEMERIS_TYPE = 0
CLASSIFICATION_TYPE = U
NORAD_CAT_ID   = 67732
ELEMENT_SET_NO = 999
REV_AT_EPOCH   = 273
BSTAR          = .1202E-2
MEAN_MOTION_DOT = .23744E-2
MEAN_MOTION_DDOT = 0

CCSDS_OMM_VERS = 2.0
CREATION_DATE  = 
ORIGINATOR     = 

OBJECT_NAME    = STARLINK-36746
OBJECT_ID      = 2026-026N
CENTER_NAME    = EARTH
REF_FRAME      = TEME
TIME_SYSTEM    = UTC
MEAN_ELEMENT_THEORY = SGP/SGP4

EPOCH          = 2026-02-28T20:00:01.999008
MEAN_MOTION    = 15.65960728
ECCENTRICITY   = .0001584
INCLINATION    = 97.2842
RA_OF_ASC_NODE = 114.0365
ARG_OF_PERICENTER = 69.3763
MEAN_ANOMALY   = 320.3438

EPHEMERIS_TYPE = 0
CLASSIFICATION_TYPE = U
NORAD_CAT_ID   = 67733
ELEMENT_SET_NO = 999
REV_AT_EPOCH   = 388
BSTAR          = -.22336E-1
MEAN_MOTION_DOT = -.200116E-1
MEAN_MOTION_DDOT = 0

CCSDS_OMM_VERS = 2.0
CREATION_DATE  = 
ORIGINATOR     = 

OBJECT_NAME    = STARLINK-36749
OBJECT_ID      = 2026-026P
CENTER_NAME    = EARTH
REF_FRAME      = TEME
TIME_SYSTEM    = UTC
MEAN_ELEMENT_THEORY = SGP/SGP4

EPOCH          = 2026-02-28T17:55:38.840448
MEAN_MOTION    = 15.80435503
ECCENTRICITY   = .0001501
INCLINATION    = 97.2858
RA_OF_ASC_NODE = 113.9858
ARG_OF_PERICENTER = 58.0863
MEAN_ANOMALY   = 302.0551

EPHEMERIS_TYPE = 0
CLASSIFICATION_TYPE = U
NORAD_CAT_ID   = 67734
ELEMENT_SET_NO = 999
REV_AT_EPOCH   = 272
BSTAR          = -.24613E-2
MEAN_MOTION_DOT = -.440859E-2
MEAN_MOTION_DDOT = 0

CCSDS_OMM_VERS = 2.0
CREATION_DATE  = 
ORIGINATOR     = 

OBJECT_NAME    = STARLINK-36691
OBJECT_ID      = 2026-026Q
CENTER_NAME    = EARTH
REF_FRAME      = TEME
TIME_SYSTEM    = UTC
MEAN_ELEMENT_THEORY = SGP/SGP4

EPOCH          = 2026-02-28T19:21:48.614688
MEAN_MOTION    = 15.80874553
ECCENTRICITY   = .0000888
INCLINATION    = 97.2860
RA_OF_ASC_NODE = 114.0562
ARG_OF_PERICENTER = 97.6397
MEAN_ANOMALY   = 262.4972

EPHEMERIS_TYPE = 0
CLASSIFICATION_TYPE = U
NORAD_CAT_ID   = 67735
ELEMENT_SET_NO = 999
REV_AT_EPOCH   = 273
BSTAR          = .83535E-3
MEAN_MOTION_DOT = .163332E-2
MEAN_MOTION_DDOT = 0

